[{"OBJECT_NAME":"GAOFEN-12 01","OBJECT_ID":"2019-082A","EPOCH":"2026-03-09T23:49:51.973824","MEAN_MOTION":14.80365933,"ECCENTRICITY":0.00017748,"INCLINATION":97.8143,"RA_OF_ASC_NODE":77.9831,"ARG_OF_PERICENTER":56.9861,"MEAN_ANOMALY":303.1522,"EPHEMERIS_TYPE":0,"CLASSIFICATION_TYPE":"U","NORAD_CAT_ID":44819,"ELEMENT_SET_NO":999,"REV_AT_EPOCH":33941,"BSTAR":9.6158816e-5,"MEAN_MOTION_DOT":6.83e-6,"MEAN_MOTION_DDOT":0},{"OBJECT_NAME":"METEOR 2-7 DEB","OBJECT_ID":"1981-043S","EPOCH":"2026-02-16T11:13:13.130976","MEAN_MOTION":14.77460944,"ECCENTRICITY":0.00179867,"INCLINATION":81.2265,"RA_OF_ASC_NODE":61.5904,"ARG_OF_PERICENTER":77.1698,"MEAN_ANOMALY":283.1518,"EPHEMERIS_TYPE":0,"CLASSIFICATION_TYPE":"U","NORAD_CAT_ID":36879,"ELEMENT_SET_NO":999,"REV_AT_EPOCH":63830,"BSTAR":0.005089542,"MEAN_MOTION_DOT":0.00036529,"MEAN_MOTION_DDOT":0}]
